[{"OBJECT_NAME":"OBJECT D","OBJECT_ID":"2024-092D","EPOCH":"2026-03-09T21:12:33.501312","MEAN_MOTION":15.33078357,"ECCENTRICITY":0.00083397,"INCLINATION":97.6418,"RA_OF_ASC_NODE":198.2302,"ARG_OF_PERICENTER":141.9853,"MEAN_ANOMALY":218.1979,"EPHEMERIS_TYPE":0,"CLASSIFICATION_TYPE":"U","NORAD_CAT_ID":59776,"ELEMENT_SET_NO":999,"REV_AT_EPOCH":10051,"BSTAR":0.00076511005,"MEAN_MOTION_DOT":0.00024443,"MEAN_MOTION_DDOT":0},{"OBJECT_NAME":"STARLINK-32150","OBJECT_ID":"2024-132S","EPOCH":"2026-03-09T22:12:11.467872","MEAN_MOTION":15.30201294,"ECCENTRICITY":0.00016475,"INCLINATION":53.1614,"RA_OF_ASC_NODE":51.5373,"ARG_OF_PERICENTER":99.3052,"MEAN_ANOMALY":260.8135,"EPHEMERIS_TYPE":0,"CLASSIFICATION_TYPE":"U","NORAD_CAT_ID":60294,"ELEMENT_SET_NO":999,"REV_AT_EPOCH":9159,"BSTAR":0.00028082235,"MEAN_MOTION_DOT":7.967e-5,"MEAN_MOTION_DDOT":0}]
